{"type": "FeatureCollection", "features": [ {"type": "Feature", "properties": {"norad_id": 34683, "name": "COSMOS 2251 DEB", "group": "cosmos-2251-debris", "lat": -54.8982516894018, "lon": -84.34323632999691, "alt_km": 677.3665292924297, "timestamp": "2025-12-23T11:34:48.555403+00:00", "meta": {"OBJECT_NAME": "COSMOS 2251 DEB", "OBJECT_ID": "1993-036YD", "EPOCH": "2025-12-21T23:13:28.490304", "MEAN_MOTION": 14.64596399, "ECCENTRICITY": 0.00176254, "INCLINATION": 74.0294, "RA_OF_ASC_NODE": 74.5237, "ARG_OF_PERICENTER": 189.2984, "MEAN_ANOMALY": 345.1079, "EPHEMERIS_TYPE": 0, "CLASSIFICATION_TYPE": "U", "NORAD_CAT_ID": 34683, "ELEMENT_SET_NO": 999, "REV_AT_EPOCH": 88483, "BSTAR": 0.0011365708, "MEAN_MOTION_DOT": 6.024e-05, "MEAN_MOTION_DDOT": 0}, "tle": {"line1": "1 34683U 93036YD  25355.96769086  .00006024  00000+0  11366-2 0  9996", "line2": "2 34683  74.0294  74.5237 0017625 189.2984 345.1079 14.64596399884838"}}, "geometry": {"type": "Point", "coordinates": [-84.34323632999691, -54.8982516894018]}}, {"type": "Feature", "properties": {"norad_id": 34685, "name": "COSMOS 2251 DEB", "group": "cosmos-2251-debris", "lat": 57.9587928958782, "lon": -78.87327053610542, "alt_km": 699.27069357053, "timestamp": "2025-12-23T11:34:48.555412+00:00", "meta": {"OBJECT_NAME": "COSMOS 2251 DEB", "OBJECT_ID": "1993-036YF", "EPOCH": "2025-12-22T18:53:31.182144", "MEAN_MOTION": 14.57589743, "ECCENTRICITY": 0.00142527, "INCLINATION": 74.0297, "RA_OF_ASC_NODE": 129.6782, "ARG_OF_PERICENTER": 234.6391, "MEAN_ANOMALY": 196.4204, "EPHEMERIS_TYPE": 0, "CLASSIFICATION_TYPE": "U", "NORAD_CAT_ID": 34685, "ELEMENT_SET_NO": 999, "REV_AT_EPOCH": 88678, "BSTAR": 0.0010289067, "MEAN_MOTION_DOT": 4.666e-05, "MEAN_MOTION_DDOT": 0}, "tle": {"line1": "1 34685U 93036YF  25356.78716646  .00004666  00000+0  10289-2 0  9996", "line2": "2 34685  74.0297 129.6782 0014252 234.6391 196.4204 14.57589743886780"}}, "geometry": {"type": "Point", "coordinates": [-78.87327053610542, 57.9587928958782]}}, {"type": "Feature", "properties": {"norad_id": 34689, "name": "COSMOS 2251 DEB", "group": "cosmos-2251-debris", "lat": 65.96536382864019, "lon": -115.52622738810702, "alt_km": 1026.6360313200266, "timestamp": "2025-12-23T11:34:48.555481+00:00", "meta": {"OBJECT_NAME": "COSMOS 2251 DEB", "OBJECT_ID": "1993-036YK", "EPOCH": "2025-12-15T15:20:16.539648", "MEAN_MOTION": 14.04491905, "ECCENTRICITY": 0.02275051, "INCLINATION": 74.0901, "RA_OF_ASC_NODE": 218.3502, "ARG_OF_PERICENTER": 286.6099, "MEAN_ANOMALY": 101.262, "EPHEMERIS_TYPE": 0, "CLASSIFICATION_TYPE": "U", "NORAD_CAT_ID": 34689, "ELEMENT_SET_NO": 999, "REV_AT_EPOCH": 84382, "BSTAR": 0.0020174062, "MEAN_MOTION_DOT": 4.031e-05, "MEAN_MOTION_DDOT": 0}, "tle": {"line1": "1 34689U 93036YK  25349.63908032  .00004031  00000+0  20174-2 0  9998", "line2": "2 34689  74.0901 218.3502 0227505 286.6099 101.2620 14.04491905843829"}}, "geometry": {"type": "Point", "coordinates": [-115.52622738810702, 65.96536382864019]}}, {"type": "Feature", "properties": {"norad_id": 34721, "name": "COSMOS 2251 DEB", "group": "cosmos-2251-debris", "lat": 15.497152146036015, "lon": 123.02329508994997, "alt_km": 875.5595537697982, "timestamp": "2025-12-23T11:34:48.555492+00:00", "meta": {"OBJECT_NAME": "COSMOS 2251 DEB", "OBJECT_ID": "1993-036YP", "EPOCH": "2025-12-22T15:01:26.818176", "MEAN_MOTION": 13.9688922, "ECCENTRICITY": 0.02228953, "INCLINATION": 73.9232, "RA_OF_ASC_NODE": 309.0948, "ARG_OF_PERICENTER": 246.2436, "MEAN_ANOMALY": 294.4962, "EPHEMERIS_TYPE": 0, "CLASSIFICATION_TYPE": "U", "NORAD_CAT_ID": 34721, "ELEMENT_SET_NO": 999, "REV_AT_EPOCH": 85287, "BSTAR": 0.00096151387, "MEAN_MOTION_DOT": 1.625e-05, "MEAN_MOTION_DDOT": 0}, "tle": {"line1": "1 34721U 93036YP  25356.62600484  .00001625  00000+0  96151-3 0  9997", "line2": "2 34721  73.9232 309.0948 0222895 246.2436 294.4962 13.96889220852877"}}, "geometry": {"type": "Point", "coordinates": [123.02329508994997, 15.497152146036015]}}, {"type": "Feature", "properties": {"norad_id": 34722, "name": "COSMOS 2251 DEB", "group": "cosmos-2251-debris", "lat": -68.13264494675, "lon": -176.96392596143465, "alt_km": 742.7443605540675, "timestamp": "2025-12-23T11:34:48.555501+00:00", "meta": {"OBJECT_NAME": "COSMOS 2251 DEB", "OBJECT_ID": "1993-036YQ", "EPOCH": "2025-12-22T16:31:19.088832", "MEAN_MOTION": 14.11962361, "ECCENTRICITY": 0.01666176, "INCLINATION": 73.8732, "RA_OF_ASC_NODE": 318.3225, "ARG_OF_PERICENTER": 242.1428, "MEAN_ANOMALY": 297.5456, "EPHEMERIS_TYPE": 0, "CLASSIFICATION_TYPE": "U", "NORAD_CAT_ID": 34722, "ELEMENT_SET_NO": 999, "REV_AT_EPOCH": 86385, "BSTAR": 0.00060343393, "MEAN_MOTION_DOT": 1.231e-05, "MEAN_MOTION_DDOT": 0}, "tle": {"line1": "1 34722U 93036YQ  25356.68841538  .00001231  00000+0  60343-3 0  9998", "line2": "2 34722  73.8732 318.3225 0166617 242.1428 297.5456 14.11962361863856"}}, "geometry": {"type": "Point", "coordinates": [-176.96392596143465, -68.13264494675]}}, {"type": "Feature", "properties": {"norad_id": 34726, "name": "COSMOS 2251 DEB", "group": "cosmos-2251-debris", "lat": -38.66307628867647, "lon": -47.41675087976337, "alt_km": 727.2260758911634, "timestamp": "2025-12-23T11:34:48.555510+00:00", "meta": {"OBJECT_NAME": "COSMOS 2251 DEB", "OBJECT_ID": "1993-036YU", "EPOCH": "2025-12-23T01:53:46.277376", "MEAN_MOTION": 14.59520604, "ECCENTRICITY": 0.0041716, "INCLINATION": 74.0282, "RA_OF_ASC_NODE": 326.5996, "ARG_OF_PERICENTER": 114.0334, "MEAN_ANOMALY": 246.5206, "EPHEMERIS_TYPE": 0, "CLASSIFICATION_TYPE": "U", "NORAD_CAT_ID": 34726, "ELEMENT_SET_NO": 999, "REV_AT_EPOCH": 88653, "BSTAR": 0.0004096, "MEAN_MOTION_DOT": 1.939e-05, "MEAN_MOTION_DDOT": 0}, "tle": {"line1": "1 34726U 93036YU  25357.07900784  .00001939  00000+0  40960-3 0  9993", "line2": "2 34726  74.0282 326.5996 0041716 114.0334 246.5206 14.59520604886533"}}, "geometry": {"type": "Point", "coordinates": [-47.41675087976337, -38.66307628867647]}}, {"type": "Feature", "properties": {"norad_id": 34728, "name": "COSMOS 2251 DEB", "group": "cosmos-2251-debris", "lat": -72.41265571081982, "lon": 166.16588471703741, "alt_km": 674.0658412404946, "timestamp": "2025-12-23T11:34:48.555519+00:00", "meta": {"OBJECT_NAME": "COSMOS 2251 DEB", "OBJECT_ID": "1993-036YW", "EPOCH": "2025-12-20T02:20:18.568032", "MEAN_MOTION": 14.70905998, "ECCENTRICITY": 0.00414013, "INCLINATION": 74.0163, "RA_OF_ASC_NODE": 237.4676, "ARG_OF_PERICENTER": 33.08, "MEAN_ANOMALY": 327.2947, "EPHEMERIS_TYPE": 0, "CLASSIFICATION_TYPE": "U", "NORAD_CAT_ID": 34728, "ELEMENT_SET_NO": 999, "REV_AT_EPOCH": 88908, "BSTAR": 0.00043281985, "MEAN_MOTION_DOT": 2.653e-05, "MEAN_MOTION_DDOT": 0}, "tle": {"line1": "1 34728U 93036YW  25354.09743713  .00002653  00000+0  43282-3 0  9995", "line2": "2 34728  74.0163 237.4676 0041401  33.0800 327.2947 14.70905998889085"}}, "geometry": {"type": "Point", "coordinates": [166.16588471703741, -72.41265571081982]}}, {"type": "Feature", "properties": {"norad_id": 34729, "name": "COSMOS 2251 DEB", "group": "cosmos-2251-debris", "lat": 35.296117262331606, "lon": -11.146999811575293, "alt_km": 611.9058095566652, "timestamp": "2025-12-23T11:34:48.555528+00:00", "meta": {"OBJECT_NAME": "COSMOS 2251 DEB", "OBJECT_ID": "1993-036YX", "EPOCH": "2025-12-22T08:12:08.373312", "MEAN_MOTION": 14.83049765, "ECCENTRICITY": 0.00119133, "INCLINATION": 74.0181, "RA_OF_ASC_NODE": 339.4061, "ARG_OF_PERICENTER": 92.9667, "MEAN_ANOMALY": 336.2477, "EPHEMERIS_TYPE": 0, "CLASSIFICATION_TYPE": "U", "NORAD_CAT_ID": 34729, "ELEMENT_SET_NO": 999, "REV_AT_EPOCH": 88600, "BSTAR": 0.0021170686, "MEAN_MOTION_DOT": 0.0001726, "MEAN_MOTION_DDOT": 0}, "tle": {"line1": "1 34729U 93036YX  25356.34176358  .00017260  00000+0  21171-2 0  9993", "line2": "2 34729  74.0181 339.4061 0011913  92.9667 336.2477 14.83049765886009"}}, "geometry": {"type": "Point", "coordinates": [-11.146999811575293, 35.296117262331606]}}, {"type": "Feature", "properties": {"norad_id": 34732, "name": "COSMOS 2251 DEB", "group": "cosmos-2251-debris", "lat": -32.07971985028894, "lon": 62.783104799262546, "alt_km": 747.2142312199967, "timestamp": "2025-12-23T11:34:48.555537+00:00", "meta": {"OBJECT_NAME": "COSMOS 2251 DEB", "OBJECT_ID": "1993-036ZA", "EPOCH": "2025-12-22T16:32:23.959680", "MEAN_MOTION": 14.47311087, "ECCENTRICITY": 0.00401751, "INCLINATION": 74.0456, "RA_OF_ASC_NODE": 74.5946, "ARG_OF_PERICENTER": 223.757, "MEAN_ANOMALY": 290.4905, "EPHEMERIS_TYPE": 0, "CLASSIFICATION_TYPE": "U", "NORAD_CAT_ID": 34732, "ELEMENT_SET_NO": 999, "REV_AT_EPOCH": 88287, "BSTAR": 0.00012395205, "MEAN_MOTION_DOT": 4.3e-06, "MEAN_MOTION_DDOT": 0}, "tle": {"line1": "1 34732U 93036ZA  25356.68916620  .00000430  00000+0  12395-3 0  9998", "line2": "2 34732  74.0456  74.5946 0040175 223.7570 290.4905 14.47311087882873"}}, "geometry": {"type": "Point", "coordinates": [62.783104799262546, -32.07971985028894]}}, {"type": "Feature", "properties": {"norad_id": 34736, "name": "COSMOS 2251 DEB", "group": "cosmos-2251-debris", "lat": -5.886588309778413, "lon": -165.77714605794816, "alt_km": 407.31434560033813, "timestamp": "2025-12-23T11:34:48.555547+00:00", "meta": {"OBJECT_NAME": "COSMOS 2251 DEB", "OBJECT_ID": "1993-036ZE", "EPOCH": "2025-12-23T01:31:45.624000", "MEAN_MOTION": 15.56569101, "ECCENTRICITY": 0.0012722, "INCLINATION": 73.9976, "RA_OF_ASC_NODE": 13.4571, "ARG_OF_PERICENTER": 338.4626, "MEAN_ANOMALY": 21.6053, "EPHEMERIS_TYPE": 0, "CLASSIFICATION_TYPE": "U", "NORAD_CAT_ID": 34736, "ELEMENT_SET_NO": 999, "REV_AT_EPOCH": 88608, "BSTAR": 0.0074182, "MEAN_MOTION_DOT": 0.00567582, "MEAN_MOTION_DDOT": 0}, "tle": {"line1": "1 34736U 93036ZE  25357.06372250  .00567582  00000+0  74182-2 0  9997", "line2": "2 34736  73.9976  13.4571 0012722 338.4626  21.6053 15.56569101886089"}}, "geometry": {"type": "Point", "coordinates": [-165.77714605794816, -5.886588309778413]}}]}